{
  "norad_id": 40424,
  "name": "ABS-3A",
  "history": [
    {
      "epoch": "2026-03-28T16:28:55.544736Z",
      "apogee_km": 35793.181579383716,
      "perigee_km": 35780.72601156273,
      "latitude_deg": -0.025218151153947668,
      "longitude_deg": -2.9513885235115778,
      "height_km": 35789.47848484252,
      "semi_major_axis_km": 42165.090795473225,
      "eccentricity": 0.0001477,
      "inclination_deg": 0.0106,
      "raan_deg": 130.3605,
      "arg_perigee_deg": 180.6232,
      "mean_anomaly_deg": 119.3617,
      "mean_motion_rev_day": 1.00270505
    },
    {
      "epoch": "2026-03-29T04:27:44.097120Z",
      "apogee_km": 35793.28652804251,
      "perigee_km": 35780.54424921067,
      "latitude_deg": 0.025722835155109838,
      "longitude_deg": -2.972560314911466,
      "height_km": 35783.54675004948,
      "semi_major_axis_km": 42165.05238862659,
      "eccentricity": 0.0001511,
      "inclination_deg": 0.0109,
      "raan_deg": 209.8008,
      "arg_perigee_deg": 103.8636,
      "mean_anomaly_deg": 296.8846,
      "mean_motion_rev_day": 1.00270642
    }
  ]
}